{
  "type": "FeatureCollection",
  "features": [
    {
      "type":"Feature",
      "geometry":{"type":"Point","coordinates":[-8.874792660717345, 52.551248755996916]},
      "properties":{
        "id":"darrira-house",
        "title":"Darrira House",
        "desc":"Placeholder description for Darrira House. Replace with final copy.",
        "beds": 4,
        "baths": 4,
        "price":"POA",
        "thumb":"/images/houses/house 6/house-6-exterior-1.webp"
      }
    },
    {
      "type":"Feature",
      "geometry":{"type":"Point","coordinates":[-8.786999475136705, 52.5588746741587]},
      "properties":{
        "id":"rangeview",
        "title":"Range View",
        "desc":"Located within Adare Manor estate, 'Range View' offers front-row proximity to Ryder Cup 2027.",
        "beds": 6,
        "baths": 6,
        "price":"POA",
        "thumb":"/images/houses/house 2/house-2-main.webp"
      }
    },
    {
      "type":"Feature",
      "geometry":{"type":"Point","coordinates":[-8.786388314512122, 52.559044262159176]},
      "properties":{
        "id":"the-captains",
        "title":"The Captains",
        "desc":"Within Adare Manor's secure walls, 'Captains House' places you at the heart of Ryder Cup action in complete privacy.",
        "beds": 6,
        "baths": 6,
        "price":"POA",
        "thumb":"/images/houses/house 3/house-3-main.webp"
      }
    },
    {
      "type":"Feature",
      "geometry":{"type":"Point","coordinates":[-8.780790470041158, 52.561675058520805]},
      "properties":{
        "id":"putters-way",
        "title":"Putters Way",
        "desc":"Premium residence within the private Golf Village of Adare Manor, metres from the Carriage House and a short stroll to the 1st tee.",
        "beds": 2,
        "baths": 2,
        "price":"POA",
        "thumb":"/images/houses/house 4/adare-house-4.webp"
      }
    },
    {
      "type":"Feature",
      "geometry":{"type":"Point","coordinates":[-8.7795, 52.5620]},
      "properties":{
        "id":"the-first-tee",
        "title":"The First Tee",
        "desc":"Closest residence to the Ryder Cup action — 150 yards from the practice range and 1st tee.",
        "beds": 5,
        "baths": 5,
        "price":"POA",
        "thumb":"/images/houses/house 7/house-7-exterior-3.webp"
      }
    },
    {
      "type":"Feature",
      "geometry":{"type":"Point","coordinates":[-8.788175127542624, 52.56053856598162]},
      "properties":{
        "id":"the-fairways",
        "title":"The Fairways",
        "desc":"Within Adare Manor's gates — Ireland's most prestigious estate, steps from Ryder Cup 2027.",
        "beds": 6,
        "baths": 6,
        "price":"POA",
        "thumb":"/images/houses/house 1/house-1-main-optimized.webp"
      }
    },
    {
      "type":"Feature",
      "geometry":{"type":"Point","coordinates":[-8.633716487242898, 52.60004283130491]},
      "properties":{
        "id":"cragleigh-house",
        "title":"Cragleigh House",
        "desc":"Just 15 minutes from Adare Manor with easy access to Limerick, Shannon Airport, and Ryder Cup 2027.",
        "beds": 5,
        "baths": 5,
        "price":"POA",
        "thumb":"/images/houses/house 5/cragleigh-house-main-optimized.webp"
      }
    },
    {
      "type":"Feature",
      "geometry":{"type":"Point","coordinates":[-9.3432, 52.9346]},
      "properties":{
        "id":"dunes-lodge",
        "title":"Dunes Lodge",
        "desc":"Architect-designed A-rated home overlooking the Lahinch Old Course along the Wild Atlantic Way.",
        "beds": 4,
        "baths": 3,
        "price":"POA",
        "thumb":"/images/houses/house 9/house-9-exterior-2.jpg"
      }
    }
  ]
}
